{
  "id": 856950639,
  "type": "Feature",
  "properties": {
    "addr:city":"Mount Pleasant",
    "addr:full":"405 E Thresher Rd Mount Pleasant, Ia 52641",
    "addr:house_number":"405",
    "addr:housenumber":"405",
    "addr:phone":"+1 319-385-8937",
    "addr:postcode":"52641",
    "addr:road":"E Thresher Rd",
    "addr:state":"IA",
    "addr:street":"E Thresher Rd",
    "edtf:cessation":"uuuu",
    "edtf:inception":"uuuu",
    "geom:area":0.0,
    "geom:bbox":"-91.54729,40.95395,-91.54729,40.95395",
    "geom:latitude":40.95395,
    "geom:longitude":-91.54729,
    "iso:country":"US",
    "mz:hierarchy_label":1,
    "mz:is_current":1,
    "sg:address":"405 E Thresher Rd",
    "sg:city":"Mt Pleasant",
    "sg:classifiers":[
        {
            "category":"Museum",
            "subcategory":"",
            "type":"Entertainment"
        }
    ],
    "sg:owner":"simplegeo",
    "sg:phone":"+1 319 385 8937",
    "sg:postcode":"52641",
    "sg:province":"IA",
    "sg:website":"www.oldthreshers.org",
    "src:geom":"mudf",
    "wof:airports":[],
    "wof:belongsto":[],
    "wof:breaches":[],
    "wof:concordances":{
        "mudf:mid":8401900053,
        "sg:id":"SG_27em60dMlN0mP4joASq37s_40.954149_-91.549541@1294088824"
    },
    "wof:country":"US",
    "wof:created":1464110110,
    "wof:geomhash":"b3a2af58fa5ee4598a72e0d9c8819367",
    "wof:hierarchy":[],
    "wof:id":856950639,
    "wof:lastmodified":1534184697,
    "wof:name":"Midwest Old Threshers",
    "wof:parent_id":-1,
    "wof:placetype":"venue",
    "wof:repo":"whosonfirst-data-venue-us-ia",
    "wof:superseded_by":[],
    "wof:supersedes":[],
    "wof:tags":[]
},
  "bbox": [
    -91.54729,
    40.95395,
    -91.54729,
    40.95395
],
  "geometry": {"coordinates":[-91.54729,40.95395],"type":"Point"}
}